ONEWEB-0597             
1 54663U 22166X   26005.23750208 -.00000114  00000+0 -30803-3 0  9995
2 54663  87.9228 276.4962 0001731  76.9018 283.2309 13.21825790150013
ONEWEB-0600             
1 54664U 22166Y   26005.29509564 -.00000227  00000+0 -58152-3 0  9991
2 54664  87.9224 276.4758 0001716  72.5361 287.5960 13.21825695149998
ONEWEB-0601             
1 54665U 22166Z   26005.43826044 -.00000174  00000+0 -45214-3 0  9999
2 54665  87.9224 276.4648 0001882  78.5060 281.6286 13.21825184150208
ONEWEB-0602             
1 54666U 22166AA  26005.25149828  .00000045  00000+0  77452-4 0  9993
2 54666  87.9227 276.5065 0001832  66.5087 293.6240 13.21825484150023
ONEWEB-0603             
1 54667U 22166AB  26005.25725247  .00000097  00000+0  20376-3 0  9998
2 54667  87.9233 276.4460 0001779  75.0063 285.1268 13.21825753149953
ONEWEB-0604             
1 54668U 22166AC  26005.24574274  .00000151  00000+0  33296-3 0  9996
2 54668  87.9227 276.4665 0001584  72.8282 287.3025 13.21826210149916
ONEWEB-0605             
1 54669U 22166AD  26005.23914534  .00000155  00000+0  34309-3 0  9993
2 54669  87.9226 276.4952 0002051  90.1881 269.9488 13.21827816149982
ONEWEB-0606             
1 54670U 22166AE  26005.26053491  .00000092  00000+0  19173-3 0  9996
2 54670  87.9228 276.5026 0001419  73.8404 286.2886 13.21824808150046
